{"type": "FeatureCollection", "features": [ {"type": "Feature", "properties": {"norad_id": 34792, "name": "COSMOS 2251 DEB", "group": "cosmos-2251-debris", "lat": 27.093288350265624, "lon": 152.43945637245227, "alt_km": 712.0259542160275, "timestamp": "2025-12-26T06:43:29.906990+00:00", "meta": {"OBJECT_NAME": "COSMOS 2251 DEB", "OBJECT_ID": "1993-036AAV", "EPOCH": "2025-12-25T14:40:51.402720", "MEAN_MOTION": 14.56064533, "ECCENTRICITY": 0.0012383, "INCLINATION": 74.018, "RA_OF_ASC_NODE": 145.2771, "ARG_OF_PERICENTER": 240.3176, "MEAN_ANOMALY": 245.2413, "EPHEMERIS_TYPE": 0, "CLASSIFICATION_TYPE": "U", "NORAD_CAT_ID": 34792, "ELEMENT_SET_NO": 999, "REV_AT_EPOCH": 87837, "BSTAR": 0.0012128, "MEAN_MOTION_DOT": 5.325e-05, "MEAN_MOTION_DDOT": 0}, "tle": {"line1": "1 34792U 93036AAV 25359.61170605  .00005325  00000+0  12128-2 0  9996", "line2": "2 34792  74.0180 145.2771 0012383 240.3176 245.2413 14.56064533878375"}}, "geometry": {"type": "Point", "coordinates": [152.43945637245227, 27.093288350265624]}}, {"type": "Feature", "properties": {"norad_id": 34793, "name": "COSMOS 2251 DEB", "group": "cosmos-2251-debris", "lat": 39.99308034686806, "lon": -120.72148847194943, "alt_km": 726.7451251734847, "timestamp": "2025-12-26T06:43:29.907001+00:00", "meta": {"OBJECT_NAME": "COSMOS 2251 DEB", "OBJECT_ID": "1993-036AAW", "EPOCH": "2025-12-25T19:24:04.961664", "MEAN_MOTION": 14.38664126, "ECCENTRICITY": 0.00508769, "INCLINATION": 74.0015, "RA_OF_ASC_NODE": 226.2232, "ARG_OF_PERICENTER": 17.0479, "MEAN_ANOMALY": 102.0932, "EPHEMERIS_TYPE": 0, "CLASSIFICATION_TYPE": "U", "NORAD_CAT_ID": 34793, "ELEMENT_SET_NO": 999, "REV_AT_EPOCH": 87518, "BSTAR": 0.00021915048, "MEAN_MOTION_DOT": 6.55e-06, "MEAN_MOTION_DDOT": 0}, "tle": {"line1": "1 34793U 93036AAW 25359.80839076  .00000655  00000+0  21915-3 0  9998", "line2": "2 34793  74.0015 226.2232 0050876  17.0479 102.0932 14.38664126875185"}}, "geometry": {"type": "Point", "coordinates": [-120.72148847194943, 39.99308034686806]}}, {"type": "Feature", "properties": {"norad_id": 34796, "name": "COSMOS 2251 DEB", "group": "cosmos-2251-debris", "lat": -73.4082176546325, "lon": 84.94698027553088, "alt_km": 671.7537983457332, "timestamp": "2025-12-26T06:43:29.907011+00:00", "meta": {"OBJECT_NAME": "COSMOS 2251 DEB", "OBJECT_ID": "1993-036AAZ", "EPOCH": "2025-12-25T13:03:59.133024", "MEAN_MOTION": 14.48745914, "ECCENTRICITY": 0.0100284, "INCLINATION": 74.0282, "RA_OF_ASC_NODE": 192.3362, "ARG_OF_PERICENTER": 291.6358, "MEAN_ANOMALY": 98.4563, "EPHEMERIS_TYPE": 0, "CLASSIFICATION_TYPE": "U", "NORAD_CAT_ID": 34796, "ELEMENT_SET_NO": 999, "REV_AT_EPOCH": 88213, "BSTAR": 0.00055203, "MEAN_MOTION_DOT": 2.189e-05, "MEAN_MOTION_DDOT": 0}, "tle": {"line1": "1 34796U 93036AAZ 25359.54443441  .00002189  00000+0  55203-3 0  9990", "line2": "2 34796  74.0282 192.3362 0100284 291.6358  98.4563 14.48745914882133"}}, "geometry": {"type": "Point", "coordinates": [84.94698027553088, -73.4082176546325]}}, {"type": "Feature", "properties": {"norad_id": 34797, "name": "COSMOS 2251 DEB", "group": "cosmos-2251-debris", "lat": 67.674688207533, "lon": -149.64788619275384, "alt_km": 732.58416165989, "timestamp": "2025-12-26T06:43:29.907021+00:00", "meta": {"OBJECT_NAME": "COSMOS 2251 DEB", "OBJECT_ID": "1993-036ABA", "EPOCH": "2025-12-22T12:22:54.757056", "MEAN_MOTION": 14.42950692, "ECCENTRICITY": 0.00710542, "INCLINATION": 73.9783, "RA_OF_ASC_NODE": 81.7691, "ARG_OF_PERICENTER": 193.6898, "MEAN_ANOMALY": 166.2334, "EPHEMERIS_TYPE": 0, "CLASSIFICATION_TYPE": "U", "NORAD_CAT_ID": 34797, "ELEMENT_SET_NO": 999, "REV_AT_EPOCH": 87556, "BSTAR": 0.0021692417, "MEAN_MOTION_DOT": 7.461e-05, "MEAN_MOTION_DDOT": 0}, "tle": {"line1": "1 34797U 93036ABA 25356.51591154  .00007461  00000+0  21692-2 0  9992", "line2": "2 34797  73.9783  81.7691 0071054 193.6898 166.2334 14.42950692875560"}}, "geometry": {"type": "Point", "coordinates": [-149.64788619275384, 67.674688207533]}}, {"type": "Feature", "properties": {"norad_id": 34814, "name": "COSMOS 2251 DEB", "group": "cosmos-2251-debris", "lat": 21.19283981075578, "lon": 113.89730377015815, "alt_km": 733.449374650746, "timestamp": "2025-12-26T06:43:29.907031+00:00", "meta": {"OBJECT_NAME": "COSMOS 2251 DEB", "OBJECT_ID": "1993-036ABD", "EPOCH": "2025-12-23T04:46:16.254336", "MEAN_MOTION": 14.3693492, "ECCENTRICITY": 0.00554769, "INCLINATION": 73.8962, "RA_OF_ASC_NODE": 306.0405, "ARG_OF_PERICENTER": 193.3771, "MEAN_ANOMALY": 230.9861, "EPHEMERIS_TYPE": 0, "CLASSIFICATION_TYPE": "U", "NORAD_CAT_ID": 34814, "ELEMENT_SET_NO": 999, "REV_AT_EPOCH": 87483, "BSTAR": 0.00068608274, "MEAN_MOTION_DOT": 2.041e-05, "MEAN_MOTION_DDOT": 0}, "tle": {"line1": "1 34814U 93036ABD 25357.19879924  .00002041  00000+0  68608-3 0  9999", "line2": "2 34814  73.8962 306.0405 0055476 193.3771 230.9861 14.36934920874833"}}, "geometry": {"type": "Point", "coordinates": [113.89730377015815, 21.19283981075578]}}, {"type": "Feature", "properties": {"norad_id": 34815, "name": "COSMOS 2251 DEB", "group": "cosmos-2251-debris", "lat": 7.630111268873391, "lon": 33.01484220338154, "alt_km": 649.3314184588689, "timestamp": "2025-12-26T06:43:29.907041+00:00", "meta": {"OBJECT_NAME": "COSMOS 2251 DEB", "OBJECT_ID": "1993-036ABE", "EPOCH": "2025-12-25T15:19:40.992960", "MEAN_MOTION": 14.78451981, "ECCENTRICITY": 0.0058738, "INCLINATION": 74.0439, "RA_OF_ASC_NODE": 216.4709, "ARG_OF_PERICENTER": 282.86, "MEAN_ANOMALY": 76.6017, "EPHEMERIS_TYPE": 0, "CLASSIFICATION_TYPE": "U", "NORAD_CAT_ID": 34815, "ELEMENT_SET_NO": 999, "REV_AT_EPOCH": 88818, "BSTAR": 0.00073994, "MEAN_MOTION_DOT": 5.523e-05, "MEAN_MOTION_DDOT": 0}, "tle": {"line1": "1 34815U 93036ABE 25359.63866890  .00005523  00000+0  73994-3 0  9991", "line2": "2 34815  74.0439 216.4709 0058738 282.8600  76.6017 14.78451981888184"}}, "geometry": {"type": "Point", "coordinates": [33.01484220338154, 7.630111268873391]}}, {"type": "Feature", "properties": {"norad_id": 34816, "name": "COSMOS 2251 DEB", "group": "cosmos-2251-debris", "lat": 33.9444554800713, "lon": 132.24870041904845, "alt_km": 1269.4865772975745, "timestamp": "2025-12-26T06:43:29.907052+00:00", "meta": {"OBJECT_NAME": "COSMOS 2251 DEB", "OBJECT_ID": "1993-036ABF", "EPOCH": "2025-12-25T01:06:13.254336", "MEAN_MOTION": 13.58358364, "ECCENTRICITY": 0.03729236, "INCLINATION": 73.8874, "RA_OF_ASC_NODE": 123.043, "ARG_OF_PERICENTER": 185.3949, "MEAN_ANOMALY": 299.3527, "EPHEMERIS_TYPE": 0, "CLASSIFICATION_TYPE": "U", "NORAD_CAT_ID": 34816, "ELEMENT_SET_NO": 999, "REV_AT_EPOCH": 82950, "BSTAR": 0.0014772062, "MEAN_MOTION_DOT": 1.67e-05, "MEAN_MOTION_DDOT": 0}, "tle": {"line1": "1 34816U 93036ABF 25359.04598674  .00001670  00000+0  14772-2 0  9996", "line2": "2 34816  73.8874 123.0430 0372923 185.3949 299.3527 13.58358364829506"}}, "geometry": {"type": "Point", "coordinates": [132.24870041904845, 33.9444554800713]}}, {"type": "Feature", "properties": {"norad_id": 34818, "name": "COSMOS 2251 DEB", "group": "cosmos-2251-debris", "lat": -49.090202652672275, "lon": 111.33229512251984, "alt_km": 781.8803857834127, "timestamp": "2025-12-26T06:43:29.907062+00:00", "meta": {"OBJECT_NAME": "COSMOS 2251 DEB", "OBJECT_ID": "1993-036ABH", "EPOCH": "2025-12-25T19:53:41.813088", "MEAN_MOTION": 14.3698227, "ECCENTRICITY": 0.00247232, "INCLINATION": 74.0363, "RA_OF_ASC_NODE": 272.8725, "ARG_OF_PERICENTER": 345.7438, "MEAN_ANOMALY": 72.818, "EPHEMERIS_TYPE": 0, "CLASSIFICATION_TYPE": "U", "NORAD_CAT_ID": 34818, "ELEMENT_SET_NO": 999, "REV_AT_EPOCH": 87558, "BSTAR": 0.00019629706, "MEAN_MOTION_DOT": 5.57e-06, "MEAN_MOTION_DDOT": 0}, "tle": {"line1": "1 34818U 93036ABH 25359.82895617  .00000557  00000+0  19630-3 0  9993", "line2": "2 34818  74.0363 272.8725 0024723 345.7438  72.8180 14.36982270875585"}}, "geometry": {"type": "Point", "coordinates": [111.33229512251984, -49.090202652672275]}}, {"type": "Feature", "properties": {"norad_id": 34819, "name": "COSMOS 2251 DEB", "group": "cosmos-2251-debris", "lat": 27.911197273863856, "lon": 125.35831007301347, "alt_km": 688.9523011290648, "timestamp": "2025-12-26T06:43:29.907072+00:00", "meta": {"OBJECT_NAME": "COSMOS 2251 DEB", "OBJECT_ID": "1993-036ABJ", "EPOCH": "2025-12-25T01:52:59.959200", "MEAN_MOTION": 14.64149943, "ECCENTRICITY": 0.00152489, "INCLINATION": 74.0188, "RA_OF_ASC_NODE": 118.9364, "ARG_OF_PERICENTER": 214.0486, "MEAN_ANOMALY": 323.4712, "EPHEMERIS_TYPE": 0, "CLASSIFICATION_TYPE": "U", "NORAD_CAT_ID": 34819, "ELEMENT_SET_NO": 999, "REV_AT_EPOCH": 88409, "BSTAR": 0.0016705691, "MEAN_MOTION_DOT": 8.78e-05, "MEAN_MOTION_DDOT": 0}, "tle": {"line1": "1 34819U 93036ABJ 25359.07847175  .00008780  00000+0  16706-2 0  9993", "line2": "2 34819  74.0188 118.9364 0015248 214.0486 323.4712 14.64149943884098"}}, "geometry": {"type": "Point", "coordinates": [125.35831007301347, 27.911197273863856]}}, {"type": "Feature", "properties": {"norad_id": 34823, "name": "COSMOS 2251 DEB", "group": "cosmos-2251-debris", "lat": -6.843185734755455, "lon": 74.67979222921433, "alt_km": 818.058989245168, "timestamp": "2025-12-26T06:43:29.907083+00:00", "meta": {"OBJECT_NAME": "COSMOS 2251 DEB", "OBJECT_ID": "1993-036ABN", "EPOCH": "2025-12-24T15:09:15.666048", "MEAN_MOTION": 14.54999461, "ECCENTRICITY": 0.01538489, "INCLINATION": 74.0415, "RA_OF_ASC_NODE": 79.7679, "ARG_OF_PERICENTER": 161.572, "MEAN_ANOMALY": 199.1106, "EPHEMERIS_TYPE": 0, "CLASSIFICATION_TYPE": "U", "NORAD_CAT_ID": 34823, "ELEMENT_SET_NO": 999, "REV_AT_EPOCH": 88554, "BSTAR": 0.00054717068, "MEAN_MOTION_DOT": 2.731e-05, "MEAN_MOTION_DDOT": 0}, "tle": {"line1": "1 34823U 93036ABN 25358.63143132  .00002731  00000+0  54717-3 0  9996", "line2": "2 34823  74.0415  79.7679 0153848 161.5720 199.1106 14.54999461885548"}}, "geometry": {"type": "Point", "coordinates": [74.67979222921433, -6.843185734755455]}}]}